GSAT0215 (GALILEO 19)   
1 43055U 17079A   26165.66928368  .00000059  00000+0  00000+0 0  9991
2 43055  55.0740 221.5761 0003050 262.9827  97.0848  1.70474552 52949
GSAT0216 (GALILEO 20)   
1 43056U 17079B   26164.78727197  .00000061  00000+0  00000+0 0  9994
2 43056  55.0743 221.6004 0004468 275.6764  84.3739  1.70474522 52944
GSAT0217 (GALILEO 21)   
1 43057U 17079C   26165.00806614  .00000061  00000+0  00000+0 0  9993
2 43057  55.0725 221.5923 0004743 283.1918  76.8570  1.70474083 52935
GSAT0218 (GALILEO 22)   
1 43058U 17079D   26164.05497403  .00000061  00000+0  00000+0 0  9990
2 43058  55.0728 221.6159 0005024 272.4694  87.5720  1.70474471 52944
BEIDOU-3 M7             
1 43107U 18003A   26163.51786711 -.00000069  00000+0  00000+0 0  9995
2 43107  54.3326 302.4785 0004908  93.1066 266.9324  1.86228217 57264
BEIDOU-3 M8             
1 43108U 18003B   26166.14747137 -.00000070  00000+0  00000+0 0  9999
2 43108  54.3226 302.3685 0002584 262.0239  97.9304  1.86231021 57323
BEIDOU-3 M4             
1 43207U 18018A   26164.97958671 -.00000054  00000+0  00000+0 0  9993
2 43207  56.6477  63.2545 0007796  19.0870 340.9711  1.86230844 56688
BEIDOU-3 M3             
1 43208U 18018B   26164.50910292 -.00000055  00000+0  00000+0 0  9991
2 43208  56.6473  63.2743 0008681 341.1223  18.8726  1.86230755 56677
BEIDOU-3 M9             
1 43245U 18029A   26165.26385506 -.00000068  00000+0  00000+0 0  9996
2 43245  54.1964 300.0516 0000979 151.4911 208.4979  1.86228094 55842
BEIDOU-3 M10            
1 43246U 18029B   26163.58735657 -.00000068  00000+0  00000+0 0  9996
2 43246  54.1961 300.1366 0003902  39.2234 320.7882  1.86229309 55799
IRNSS-1I                
1 43286U 18035A   26165.84199394  .00000064  00000+0  00000+0 0  9995
2 43286  28.7494  74.2326 0017858 181.5121   5.3509  1.00271722 30053
COSMOS 2527 [GLONASS-M] 
1 43508U 18053A   26166.20762226 -.00000024  00000+0  00000+0 0  9990
2 43508  65.5763  73.9738 0007191 240.2222 119.7330  2.13102160 62236
BEIDOU-2 IGSO-7         
1 43539U 18057A   26165.92400608 -.00000011  00000+0  00000+0 0  9995
2 43539  55.1939 163.0777 0105015 237.9971 304.9149  1.00251741 29102
GSAT0221 (GALILEO 25)   
1 43564U 18060A   26161.61257961 -.00000063  00000+0  00000+0 0  9998
2 43564  57.1738 341.9578 0002678 307.2326  52.7584  1.70475913 49054
GSAT0222 (GALILEO 26)   
1 43565U 18060B   26165.35171576 -.00000078  00000+0  00000+0 0  9997
2 43565  57.1736 341.8605 0001953 249.8603 110.1218  1.70475614 49160
GSAT0219 (GALILEO 23)   
1 43566U 18060C   26164.98602962 -.00000076  00000+0  00000+0 0  9992
2 43566  57.1733 341.8717 0002109 326.6126  33.3787  1.70475843 49138
GSAT0220 (GALILEO 24)   
1 43567U 18060D   26165.20701180 -.00000077  00000+0  00000+0 0  9992
2 43567  57.1756 341.8658 0002157 311.2111  48.7740  1.70475528 49123
BEIDOU-3 M5             
1 43581U 18062A   26165.95929091  .00000090  00000+0  00000+0 0  9999
2 43581  54.0853 182.3799 0005579 288.5784  71.4097  1.86228546 53597
BEIDOU-3 M6             
1 43582U 18062B   26166.35970611  .00000083  00000+0  00000+0 0  9991
2 43582  54.0851 182.3554 0004964   9.0572 350.9971  1.86227749 53605
BEIDOU-3 M12            
1 43602U 18067A   26165.76115788  .00000093  00000+0  00000+0 0  9990
2 43602  54.1799 181.1228 0007736  29.8475 330.2441  1.86227714 53073
BEIDOU-3 M11            
1 43603U 18067B   26165.35925920  .00000099  00000+0  00000+0 0  9999
2 43603  54.1775 181.0999 0004437  12.9310 347.1309  1.86227183 53090
BEIDOU-3 M13            
1 43622U 18072A   26164.77714546 -.00000055  00000+0  00000+0 0  9994
2 43622  56.6216  62.7728 0007357 328.6161  31.3689  1.86231394 52594
BEIDOU-3 M14            
1 43623U 18072B   26165.17953757 -.00000054  00000+0  00000+0 0  9998
2 43623  56.6235  62.7539 0006154 359.2992   0.7305  1.86231391 52594
BEIDOU-3 M16            
1 43647U 18078A   26165.87184881 -.00000068  00000+0  00000+0 0  9996
2 43647  54.0921 300.0672 0007166  40.8985 319.1398  1.86232163 52114
BEIDOU-3 M15            
1 43648U 18078B   26165.46418844 -.00000068  00000+0  00000+0 0  9991
2 43648  54.0883 300.0818 0004204  57.5981 302.4264  1.86232267 52128
BEIDOU-3 G1             
1 43683U 18085A   26166.53423385 -.00000109  00000+0  00000+0 0  9999
2 43683   2.8629  97.4262 0008066 349.0436 169.6328  1.00270402 28047
COSMOS 2529 [GLONASS-M] 
1 43687U 18086A   26165.36563196  .00000103  00000+0  00000+0 0  9992
2 43687  64.2947 192.6898 0012019 256.4498 103.4890  2.13101901 59227
BEIDOU-3 M17            
1 43706U 18093A   26166.42497597  .00000082  00000+0  00000+0 0  9997
2 43706  54.1689 182.3560 0010153 291.9133 243.9485  1.86228310 51505
BEIDOU-3 M18            
1 43707U 18093B   26166.02598447  .00000089  00000+0  00000+0 0  9997
2 43707  54.1697 182.3617 0007908 320.4950  39.4955  1.86226530 51497
NAVSTAR 77 (USA 289)    
1 43873U 18109A   26166.03578947 -.00000024  00000+0  00000+0 0  9993
2 43873  55.6807  92.2717 0038145 198.0001 172.3583  2.00561368 55039
BEIDOU-3 IGSO-1         
1 44204U 19023A   26157.95428288 -.00000215  00000+0  00000+0 0  9993
2 44204  58.6799  37.7569 0025434 225.6649  92.8731  1.00294886  7105
